IRIDIUM 150             
1 43257U 18030J   24209.41656802  .00000047  00000+0  95955-5 0  9990
2 43257  86.3962 218.7085 0002397  83.4573 276.6896 14.34217070331313
IRIDIUM 143             
1 43258U 18030K   24209.04869912 -.00000042  00000+0 -22148-4 0  9998
2 43258  86.3971 218.9279 0002107  80.9956 279.1478 14.34216307331177
IRIDIUM 161             
1 43478U 18047C   24208.91115339  .00000312  00000+0  86813-4 0  9999
2 43478  86.4495  16.9322 0002076  87.2697 272.8742 14.43276099325570
IRIDIUM 152             
1 43479U 18047D   24209.44002649  .00000320  00000+0  10731-3 0  9992
2 43479  86.3971  16.5708 0002210  90.1939 269.9510 14.34218309323630
IRIDIUM 147             
1 43480U 18047E   24209.16729499  .00000436  00000+0  14872-3 0  9990
2 43480  86.3971  16.6777 0002231  93.1292 267.0159 14.34217832323589
IRIDIUM 110             
1 43481U 18047F   24209.17363747  .00000136  00000+0  41531-4 0  9992
2 43481  86.3975  16.7491 0002360 100.6470 259.4992 14.34215968323570
IRIDIUM 162             
1 43482U 18047G   24208.90493527  .00000641  00000+0  18450-3 0  9997
2 43482  86.4495  16.8345 0002275  89.2854 270.8608 14.43284007325563
IRIDIUM 160             
1 43569U 18061A   24209.11947248  .00000037  00000+0  62193-5 0  9991
2 43569  86.4004 345.1599 0001878 107.0291 253.1111 14.34218447314461
